CCSDS_OMM_VERS = 2.0
CREATION_DATE  = 
ORIGINATOR     = 

OBJECT_NAME    = STARLINK-35511
OBJECT_ID      = 2025-253AB
CENTER_NAME    = EARTH
REF_FRAME      = TEME
TIME_SYSTEM    = UTC
MEAN_ELEMENT_THEORY = SGP/SGP4

EPOCH          = 2025-11-30T02:39:11.056032
MEAN_MOTION    = 15.50638665
ECCENTRICITY   = .0001858
INCLINATION    = 42.9996
RA_OF_ASC_NODE = 58.4719
ARG_OF_PERICENTER = 274.7450
MEAN_ANOMALY   = 85.3198

EPHEMERIS_TYPE = 0
CLASSIFICATION_TYPE = U
NORAD_CAT_ID   = 66344
ELEMENT_SET_NO = 999
REV_AT_EPOCH   = 497
BSTAR          = .25293E-2
MEAN_MOTION_DOT = .151263E-2
MEAN_MOTION_DDOT = 0

CCSDS_OMM_VERS = 2.0
CREATION_DATE  = 
ORIGINATOR     = 

OBJECT_NAME    = STARLINK-35440
OBJECT_ID      = 2025-253AC
CENTER_NAME    = EARTH
REF_FRAME      = TEME
TIME_SYSTEM    = UTC
MEAN_ELEMENT_THEORY = SGP/SGP4

EPOCH          = 2025-11-30T02:40:10.400736
MEAN_MOTION    = 15.50625556
ECCENTRICITY   = .0002029
INCLINATION    = 42.9995
RA_OF_ASC_NODE = 58.4755
ARG_OF_PERICENTER = 287.2423
MEAN_ANOMALY   = 72.8215

EPHEMERIS_TYPE = 0
CLASSIFICATION_TYPE = U
NORAD_CAT_ID   = 66345
ELEMENT_SET_NO = 999
REV_AT_EPOCH   = 497
BSTAR          = .21553E-2
MEAN_MOTION_DOT = .128408E-2
MEAN_MOTION_DDOT = 0

CCSDS_OMM_VERS = 2.0
CREATION_DATE  = 
ORIGINATOR     = 

OBJECT_NAME    = STARLINK-35482
OBJECT_ID      = 2025-253AD
CENTER_NAME    = EARTH
REF_FRAME      = TEME
TIME_SYSTEM    = UTC
MEAN_ELEMENT_THEORY = SGP/SGP4

EPOCH          = 2025-11-30T02:39:40.611744
MEAN_MOTION    = 15.50632692
ECCENTRICITY   = .0001837
INCLINATION    = 42.9995
RA_OF_ASC_NODE = 58.4736
ARG_OF_PERICENTER = 286.4982
MEAN_ANOMALY   = 73.5676

EPHEMERIS_TYPE = 0
CLASSIFICATION_TYPE = U
NORAD_CAT_ID   = 66346
ELEMENT_SET_NO = 999
REV_AT_EPOCH   = 497
BSTAR          = .21373E-2
MEAN_MOTION_DOT = .127345E-2
MEAN_MOTION_DDOT = 0

CCSDS_OMM_VERS = 2.0
CREATION_DATE  = 
ORIGINATOR     = 

OBJECT_NAME    = STARLINK-35438
OBJECT_ID      = 2025-253AE
CENTER_NAME    = EARTH
REF_FRAME      = TEME
TIME_SYSTEM    = UTC
MEAN_ELEMENT_THEORY = SGP/SGP4

EPOCH          = 2025-11-30T02:38:41.398368
MEAN_MOTION    = 15.50636213
ECCENTRICITY   = .0001867
INCLINATION    = 42.9995
RA_OF_ASC_NODE = 58.4676
ARG_OF_PERICENTER = 278.4229
MEAN_ANOMALY   = 81.6420

EPHEMERIS_TYPE = 0
CLASSIFICATION_TYPE = U
NORAD_CAT_ID   = 66347
ELEMENT_SET_NO = 999
REV_AT_EPOCH   = 497
BSTAR          = .24773E-2
MEAN_MOTION_DOT = .148071E-2
MEAN_MOTION_DDOT = 0

CCSDS_OMM_VERS = 2.0
CREATION_DATE  = 
ORIGINATOR     = 

OBJECT_NAME    = STARLINK-35849
OBJECT_ID      = 2025-254A
CENTER_NAME    = EARTH
REF_FRAME      = TEME
TIME_SYSTEM    = UTC
MEAN_ELEMENT_THEORY = SGP/SGP4

EPOCH          = 2025-11-30T02:49:41.598048
MEAN_MOTION    = 15.74243649
ECCENTRICITY   = .0001161
INCLINATION    = 53.1587
RA_OF_ASC_NODE = 337.6161
ARG_OF_PERICENTER = 62.9952
MEAN_ANOMALY   = 297.1187

EPHEMERIS_TYPE = 0
CLASSIFICATION_TYPE = U
NORAD_CAT_ID   = 66348
ELEMENT_SET_NO = 999
REV_AT_EPOCH   = 485
BSTAR          = .12683E-2
MEAN_MOTION_DOT = .1898E-2
MEAN_MOTION_DDOT = 0

CCSDS_OMM_VERS = 2.0
CREATION_DATE  = 
ORIGINATOR     = 

OBJECT_NAME    = STARLINK-35848
OBJECT_ID      = 2025-254B
CENTER_NAME    = EARTH
REF_FRAME      = TEME
TIME_SYSTEM    = UTC
MEAN_ELEMENT_THEORY = SGP/SGP4

EPOCH          = 2025-11-30T02:49:12.310176
MEAN_MOTION    = 15.74241932
ECCENTRICITY   = .0001443
INCLINATION    = 53.1587
RA_OF_ASC_NODE = 337.6133
ARG_OF_PERICENTER = 102.2618
MEAN_ANOMALY   = 257.8564

EPHEMERIS_TYPE = 0
CLASSIFICATION_TYPE = U
NORAD_CAT_ID   = 66349
ELEMENT_SET_NO = 999
REV_AT_EPOCH   = 369
BSTAR          = .10577E-2
MEAN_MOTION_DOT = .157564E-2
MEAN_MOTION_DDOT = 0

CCSDS_OMM_VERS = 2.0
CREATION_DATE  = 
ORIGINATOR     = 

OBJECT_NAME    = STARLINK-35829
OBJECT_ID      = 2025-254C
CENTER_NAME    = EARTH
REF_FRAME      = TEME
TIME_SYSTEM    = UTC
MEAN_ELEMENT_THEORY = SGP/SGP4

EPOCH          = 2025-11-30T02:48:42.985152
MEAN_MOTION    = 15.74246936
ECCENTRICITY   = .0001193
INCLINATION    = 53.1586
RA_OF_ASC_NODE = 337.6108
ARG_OF_PERICENTER = 91.0650
MEAN_ANOMALY   = 269.0506

EPHEMERIS_TYPE = 0
CLASSIFICATION_TYPE = U
NORAD_CAT_ID   = 66350
ELEMENT_SET_NO = 999
REV_AT_EPOCH   = 369
BSTAR          = .11051E-2
MEAN_MOTION_DOT = .164829E-2
MEAN_MOTION_DDOT = 0

CCSDS_OMM_VERS = 2.0
CREATION_DATE  = 
ORIGINATOR     = 

OBJECT_NAME    = STARLINK-35828
OBJECT_ID      = 2025-254D
CENTER_NAME    = EARTH
REF_FRAME      = TEME
TIME_SYSTEM    = UTC
MEAN_ELEMENT_THEORY = SGP/SGP4

EPOCH          = 2025-11-30T02:48:13.914144
MEAN_MOTION    = 15.74235025
ECCENTRICITY   = .0001884
INCLINATION    = 53.1586
RA_OF_ASC_NODE = 337.6081
ARG_OF_PERICENTER = 104.0763
MEAN_ANOMALY   = 256.0467

EPHEMERIS_TYPE = 0
CLASSIFICATION_TYPE = U
NORAD_CAT_ID   = 66351
ELEMENT_SET_NO = 999
REV_AT_EPOCH   = 369
BSTAR          = .92595E-3
MEAN_MOTION_DOT = .137489E-2
MEAN_MOTION_DDOT = 0

CCSDS_OMM_VERS = 2.0
CREATION_DATE  = 
ORIGINATOR     = 

OBJECT_NAME    = STARLINK-35850
OBJECT_ID      = 2025-254E
CENTER_NAME    = EARTH
REF_FRAME      = TEME
TIME_SYSTEM    = UTC
MEAN_ELEMENT_THEORY = SGP/SGP4

EPOCH          = 2025-11-30T02:47:44.678976
MEAN_MOTION    = 15.74220937
ECCENTRICITY   = .0001441
INCLINATION    = 53.1588
RA_OF_ASC_NODE = 337.6059
ARG_OF_PERICENTER = 115.6754
MEAN_ANOMALY   = 244.4415

EPHEMERIS_TYPE = 0
CLASSIFICATION_TYPE = U
NORAD_CAT_ID   = 66352
ELEMENT_SET_NO = 999
REV_AT_EPOCH   = 369
BSTAR          = .77609E-3
MEAN_MOTION_DOT = .11475E-2
MEAN_MOTION_DDOT = 0

CCSDS_OMM_VERS = 2.0
CREATION_DATE  = 
ORIGINATOR     = 

OBJECT_NAME    = STARLINK-35869
OBJECT_ID      = 2025-254F
CENTER_NAME    = EARTH
REF_FRAME      = TEME
TIME_SYSTEM    = UTC
MEAN_ELEMENT_THEORY = SGP/SGP4

EPOCH          = 2025-11-30T02:47:15.449856
MEAN_MOTION    = 15.74251693
ECCENTRICITY   = .0001304
INCLINATION    = 53.1583
RA_OF_ASC_NODE = 337.6035
ARG_OF_PERICENTER = 101.3015
MEAN_ANOMALY   = 258.8151

EPHEMERIS_TYPE = 0
CLASSIFICATION_TYPE = U
NORAD_CAT_ID   = 66353
ELEMENT_SET_NO = 999
REV_AT_EPOCH   = 369
BSTAR          = .11773E-2
MEAN_MOTION_DOT = .175912E-2
MEAN_MOTION_DDOT = 0

CCSDS_OMM_VERS = 2.0
CREATION_DATE  = 
ORIGINATOR     = 

OBJECT_NAME    = STARLINK-35895
OBJECT_ID      = 2025-254G
CENTER_NAME    = EARTH
REF_FRAME      = TEME
TIME_SYSTEM    = UTC
MEAN_ELEMENT_THEORY = SGP/SGP4

EPOCH          = 2025-11-30T02:46:16.963968
MEAN_MOTION    = 15.75145055
ECCENTRICITY   = .0004229
INCLINATION    = 53.1585
RA_OF_ASC_NODE = 337.5969
ARG_OF_PERICENTER = 185.0087
MEAN_ANOMALY   = 175.0891

EPHEMERIS_TYPE = 0
CLASSIFICATION_TYPE = U
NORAD_CAT_ID   = 66354
ELEMENT_SET_NO = 999
REV_AT_EPOCH   = 369
BSTAR          = .27257E-2
MEAN_MOTION_DOT = .437789E-2
MEAN_MOTION_DDOT = 0

CCSDS_OMM_VERS = 2.0
CREATION_DATE  = 
ORIGINATOR     = 

OBJECT_NAME    = STARLINK-35861
OBJECT_ID      = 2025-254H
CENTER_NAME    = EARTH
REF_FRAME      = TEME
TIME_SYSTEM    = UTC
MEAN_ELEMENT_THEORY = SGP/SGP4

EPOCH          = 2025-11-30T02:46:17.109984
MEAN_MOTION    = 15.74248707
ECCENTRICITY   = .0001478
INCLINATION    = 53.1584
RA_OF_ASC_NODE = 337.5987
ARG_OF_PERICENTER = 84.0249
MEAN_ANOMALY   = 276.0939

EPHEMERIS_TYPE = 0
CLASSIFICATION_TYPE = U
NORAD_CAT_ID   = 66355
ELEMENT_SET_NO = 999
REV_AT_EPOCH   = 369
BSTAR          = .12107E-2
MEAN_MOTION_DOT = .181009E-2
MEAN_MOTION_DDOT = 0

