STARLINK-35511          
1 66344U 25253AB  25334.11054463  .00151263  00000+0  25293-2 0  9991
2 66344  42.9996  58.4719 0001858 274.7450  85.3198 15.50638665  4978
STARLINK-35440          
1 66345U 25253AC  25334.11123149  .00128408  00000+0  21553-2 0  9990
2 66345  42.9995  58.4755 0002029 287.2423  72.8215 15.50625556  4974
STARLINK-35482          
1 66346U 25253AD  25334.11088671  .00127345  00000+0  21373-2 0  9990
2 66346  42.9995  58.4736 0001837 286.4982  73.5676 15.50632692  4979
STARLINK-35438          
1 66347U 25253AE  25334.11020137  .00148071  00000+0  24773-2 0  9990
2 66347  42.9995  58.4676 0001867 278.4229  81.6420 15.50636213  4971
STARLINK-35849          
1 66348U 25254A   25334.11784257  .00189800  00000+0  12683-2 0  9994
2 66348  53.1587 337.6161 0001161  62.9952 297.1187 15.74243649  4854
STARLINK-35848          
1 66349U 25254B   25334.11750359  .00157564  00000+0  10577-2 0  9993
2 66349  53.1587 337.6133 0001443 102.2618 257.8564 15.74241932  3690
STARLINK-35829          
1 66350U 25254C   25334.11716418  .00164829  00000+0  11051-2 0  9993
2 66350  53.1586 337.6108 0001193  91.0650 269.0506 15.74246936  3696
STARLINK-35828          
1 66351U 25254D   25334.11682771  .00137489  00000+0  92595-3 0  9993
2 66351  53.1586 337.6081 0001884 104.0763 256.0467 15.74235025  3693
STARLINK-35850          
1 66352U 25254E   25334.11648934  .00114750  00000+0  77609-3 0  9992
2 66352  53.1588 337.6059 0001441 115.6754 244.4415 15.74220937  3698
STARLINK-35869          
1 66353U 25254F   25334.11615104  .00175912  00000+0  11773-2 0  9992
2 66353  53.1583 337.6035 0001304 101.3015 258.8151 15.74251693  3697
STARLINK-35895          
1 66354U 25254G   25334.11547412  .00437789  00000+0  27257-2 0  9996
2 66354  53.1585 337.5969 0004229 185.0087 175.0891 15.75145055  3698
STARLINK-35861          
1 66355U 25254H   25334.11547581  .00181009  00000+0  12107-2 0  9993
2 66355  53.1584 337.5987 0001478  84.0249 276.0939 15.74248707  3691
